NORAD_CAT_ID,OBJECT_NAME,OBJECT_TYPE,EPOCH,MEAN_MOTION,ECCENTRICITY,INCLINATION,RA_OF_ASC_NODE,ARG_OF_PERICENTER,MEAN_ANOMALY,BSTAR,MEAN_MOTION_DOT,MEAN_MOTION_DDOT,TLE_LINE0,TLE_LINE1,TLE_LINE2,SEMIMAJOR_AXIS,PERIOD,APOGEE,PERIGEE,DECAYED
52137.0,STARLINK-3733,PAYLOAD,2023-05-14 22:49:37,15.08845743,0.0001362,53.2184,11.7976,105.8955,254.2187,0.00022576,3.307e-05,0.0,0 STARLINK-3733,1 52137U 22029BB  23134.95113091  .00003307  00000-0  22576-3 0  9993,2 52137  53.2184  11.7976 0001362 105.8955 254.2187 15.08845743 65486,6917.863,95.437,540.67,538.786,0.0
52137.0,STARLINK-3733,PAYLOAD,2023-05-15 08:21:56,15.08842123,0.0001351,53.2178,10.0132,100.4573,259.6572,0.00019672,2.844e-05,0.0,0 STARLINK-3733,1 52137U 22029BB  23135.34857294  .00002844  00000-0  19672-3 0  9995,2 52137  53.2178  10.0132 0001351 100.4573 259.6572 15.08842123 65543,6917.874,95.437,540.674,538.804,0.0
52137.0,STARLINK-3733,PAYLOAD,2023-05-15 14:43:29,15.08842575,0.0001358,53.218,8.8246,105.4245,254.6897,0.00016311,2.309e-05,0.0,0 STARLINK-3733,1 52137U 22029BB  23135.61353388  .00002309  00000-0  16311-3 0  9993,2 52137  53.2180   8.8246 0001358 105.4245 254.6897 15.08842575 65585,6917.873,95.437,540.677,538.798,0.0
52137.0,STARLINK-3733,PAYLOAD,2023-05-17 00:06:35,15.08837782,0.0001466,53.218,2.5799,112.1146,248.0002,3.2203e-06,-2.37e-06,0.0,0 STARLINK-3733,1 52137U 22029BB  23137.00457787 -.00000237  00000-0  32203-5 0  9995,2 52137  53.2180   2.5799 0001466 112.1146 248.0002 15.08837782 65796,6917.887,95.438,540.766,538.738,0.0
52137.0,STARLINK-3733,PAYLOAD,2023-05-17 20:46:35,15.08850725,0.0001127,53.2152,358.711,113.0797,247.0314,-0.0002081,-3.599e-05,0.0,0 STARLINK-3733,1 52137U 22029BB  23137.86569130 -.00003599  00000-0 -20810-3 0  9999,2 52137  53.2152 358.7110 0001127 113.0797 247.0314 15.08850725 65926,6917.848,95.437,540.492,538.933,0.0
52137.0,STARLINK-3733,PAYLOAD,2023-05-18 01:32:45,15.08844177,0.0001103,53.2158,357.8182,110.0875,250.0236,0.00017705,2.531e-05,0.0,0 STARLINK-3733,1 52137U 22029BB  23138.06441603  .00002531  00000-0  17705-3 0  9998,2 52137  53.2158 357.8182 0001103 110.0875 250.0236 15.08844177 65953,6917.868,95.437,540.496,538.97,0.0
52137.0,STARLINK-3733,PAYLOAD,2023-05-18 20:37:23,15.08844583,0.0001494,53.215,354.2529,84.4475,275.6687,0.00014214,1.975e-05,0.0,0 STARLINK-3733,1 52137U 22029BB  23138.85929889  .00001975  00000-0  14214-3 0  9995,2 52137  53.2150 354.2529 0001494  84.4475 275.6687 15.08844583 66072,6917.866,95.437,540.765,538.698,0.0
52137.0,STARLINK-3733,PAYLOAD,2023-05-19 20:28:10,15.08846875,0.000112,53.2162,349.7898,114.1798,245.9312,0.00014981,2.098e-05,0.0,0 STARLINK-3733,1 52137U 22029BB  23139.85289567  .00002098  00000-0  14981-3 0  9996,2 52137  53.2162 349.7898 0001120 114.1798 245.9312 15.08846875 66226,6917.859,95.437,540.499,538.95,0.0
52137.0,STARLINK-3733,PAYLOAD,2023-05-20 17:08:11,15.08845337,0.0001051,53.216,345.9244,90.3328,269.7785,0.0001192,1.61e-05,0.0,0 STARLINK-3733,1 52137U 22029BB  23140.71401627  .00001610  00000-0  11920-3 0  9995,2 52137  53.2160 345.9244 0001051  90.3328 269.7785 15.08845337 66358,6917.864,95.437,540.456,539.002,0.0
52137.0,STARLINK-3733,PAYLOAD,2023-05-20 20:18:57,15.0884949,9.97e-05,53.2159,345.3305,82.9279,277.1826,0.00016785,2.385e-05,0.0,0 STARLINK-3733,1 52137U 22029BB  23140.84649380  .00002385  00000-0  16785-3 0  9993,2 52137  53.2159 345.3305 0000997  82.9279 277.1826 15.08849490 66373,6917.851,95.437,540.406,539.027,0.0
52137.0,STARLINK-3733,PAYLOAD,2023-05-21 20:09:44,15.08836915,0.0001282,53.2166,340.8628,94.5937,265.5201,-3.7173e-06,-3.47e-06,0.0,0 STARLINK-3733,1 52137U 22029BB  23141.84010341 -.00000347  00000-0 -37173-5 0  9997,2 52137  53.2166 340.8628 0001282  94.5937 265.5201 15.08836915 66520,6917.89,95.438,540.642,538.868,0.0
52137.0,STARLINK-3733,PAYLOAD,2023-05-21 23:20:31,15.08835462,9.86e-05,53.216,340.2741,95.6888,264.4216,-1.0681e-05,-4.58e-06,0.0,0 STARLINK-3733,1 52137U 22029BB  23141.97258302 -.00000458  00000-0 -10681-4 0  9999,2 52137  53.2160 340.2741 0000986  95.6888 264.4216 15.08835462 66543,6917.894,95.438,540.441,539.077,0.0
52137.0,STARLINK-3733,PAYLOAD,2023-05-22 13:38:59,15.08843509,9.22e-05,53.2165,337.597,91.9738,268.136,0.00010404,1.369e-05,0.0,0 STARLINK-3733,1 52137U 22029BB  23142.56874076  .00001369  00000-0  10404-3 0  9999,2 52137  53.2165 337.5970 0000922  91.9738 268.1360 15.08843509 66636,6917.87,95.437,540.372,539.097,0.0
52137.0,STARLINK-3733,PAYLOAD,2023-05-22 20:00:31,15.08851443,9.69e-05,53.2164,336.4083,93.7474,266.3628,0.00031243,4.69e-05,0.0,0 STARLINK-3733,1 52137U 22029BB  23142.83369766  .00004690  00000-0  31243-3 0  9998,2 52137  53.2164 336.4083 0000969  93.7474 266.3628 15.08851443 66673,6917.845,95.437,540.381,539.04,0.0
52137.0,STARLINK-3733,PAYLOAD,2023-05-23 02:22:04,15.08826711,0.0001219,53.2162,335.2181,95.2761,264.837,-0.00017523,-3.074e-05,0.0,0 STARLINK-3733,1 52137U 22029BB  23143.09866406 -.00003074  00000-0 -17523-3 0  9992,2 52137  53.2162 335.2181 0001219  95.2761 264.8370 15.08826711 66714,6917.921,95.438,540.629,538.943,0.0
52137.0,STARLINK-3733,PAYLOAD,2023-05-23 19:51:18,15.0884236,9.22e-05,53.2165,331.9476,107.1967,252.9127,0.00031806,4.778e-05,0.0,0 STARLINK-3733,1 52137U 22029BB  23143.82730291  .00004778  00000-0  31806-3 0  9995,2 52137  53.2165 331.9476 0000922 107.1967 252.9127 15.08842360 66826,6917.873,95.437,540.376,539.1,0.0
52137.0,STARLINK-3733,PAYLOAD,2023-05-23 21:26:42,15.08842693,9.22e-05,53.2165,331.6503,107.8444,252.2649,0.00038705,5.878e-05,0.0,0 STARLINK-3733,1 52137U 22029BB  23143.89354314  .00005878  00000-0  38705-3 0  9997,2 52137  53.2165 331.6503 0000922 107.8444 252.2649 15.08842693 66833,6917.872,95.437,540.375,539.099,0.0
52137.0,STARLINK-3733,PAYLOAD,2023-05-24 05:23:38,15.08836766,9.01e-05,53.2163,330.1634,113.9093,246.1993,0.00040096,6.099e-05,0.0,0 STARLINK-3733,1 52137U 22029BB  23144.22474563  .00006099  00000-0  40096-3 0  9996,2 52137  53.2163 330.1634 0000901 113.9093 246.1993 15.08836766 66888,6917.89,95.438,540.379,539.132,0.0
52137.0,STARLINK-3733,PAYLOAD,2023-05-24 16:31:20,15.08844251,8.97e-05,53.2162,328.0818,109.5229,250.586,0.00065231,0.0001011,0.0,0 STARLINK-3733,1 52137U 22029BB  23144.68842659  .00010110  00000-0  65231-3 0  9998,2 52137  53.2162 328.0818 0000897 109.5229 250.5860 15.08844251 66951,6917.867,95.437,540.353,539.112,0.0
52137.0,STARLINK-3733,PAYLOAD,2023-05-25 17:57:30,15.08850574,9.06e-05,53.2161,323.3237,100.4505,259.659,0.00052871,8.139e-05,0.0,0 STARLINK-3733,1 52137U 22029BB  23145.74826463  .00008139  00000-0  52871-3 0  9995,2 52137  53.2161 323.3237 0000906 100.4505 259.6590 15.08850574 67115,6917.848,95.437,540.34,539.086,0.0
52137.0,STARLINK-3733,PAYLOAD,2023-05-25 19:32:53,15.08852224,8.36e-05,53.2162,323.0266,99.8531,260.2555,0.00054933,8.468e-05,0.0,0 STARLINK-3733,1 52137U 22029BB  23145.81450378  .00008468  00000-0  54933-3 0  9997,2 52137  53.2162 323.0266 0000836  99.8531 260.2555 15.08852224 67121,6917.843,95.437,540.286,539.13,0.0
52137.0,STARLINK-3733,PAYLOAD,2023-05-26 11:26:44,15.08837963,0.000127,53.216,320.0533,78.7015,281.4119,0.00012246,1.662e-05,0.0,0 STARLINK-3733,1 52137U 22029BB  23146.47690848  .00001662  00000-0  12246-3 0  9998,2 52137  53.2160 320.0533 0001270  78.7015 281.4119 15.08837963 67224,6917.887,95.438,540.63,538.873,0.0
52137.0,STARLINK-3733,PAYLOAD,2023-05-26 17:48:17,15.08836806,9.41e-05,53.2165,318.8632,97.1108,262.9991,0.00012753,1.742e-05,0.0,0 STARLINK-3733,1 52137U 22029BB  23146.74187062  .00001742  00000-0  12753-3 0  9999,2 52137  53.2165 318.8632 0000941  97.1108 262.9991 15.08836806 67267,6917.89,95.438,540.406,539.104,0.0
52137.0,STARLINK-3733,PAYLOAD,2023-05-27 17:39:04,15.08848397,8.78e-05,53.2162,314.403,88.7266,271.3827,4.9966e-05,5.08e-06,0.0,0 STARLINK-3733,1 52137U 22029BB  23147.73546545  .00000508  00000-0  49966-4 0  9990,2 52137  53.2162 314.4030 0000878  88.7266 271.3827 15.08848397 67415,6917.855,95.437,540.327,539.112,0.0
52137.0,STARLINK-3733,PAYLOAD,2023-05-28 17:29:51,15.08846528,8.95e-05,53.2159,309.9426,83.8504,276.259,0.00020648,3e-05,0.0,0 STARLINK-3733,1 52137U 22029BB  23148.72906646  .00003000  00000-0  20648-3 0  9997,2 52137  53.2159 309.9426 0000895  83.8504 276.2590 15.08846528 67560,6917.86,95.437,540.345,539.106,0.0
52137.0,STARLINK-3733,PAYLOAD,2023-05-28 20:40:37,15.08848829,9.01e-05,53.2159,309.3476,84.433,275.6765,0.0002256,3.305e-05,0.0,0 STARLINK-3733,1 52137U 22029BB  23148.86154492  .00003305  00000-0  22560-3 0  9999,2 52137  53.2159 309.3476 0000901  84.4330 275.6765 15.08848829 67586,6917.853,95.437,540.342,539.095,0.0
52137.0,STARLINK-3733,PAYLOAD,2023-05-29 10:59:05,15.08840964,0.0001033,53.216,306.6692,92.7198,267.3913,-5.4818e-05,-1.16e-05,0.0,0 STARLINK-3733,1 52137U 22029BB  23149.45770803 -.00001160  00000-0 -54818-4 0  9996,2 52137  53.2160 306.6692 0001033  92.7198 267.3913 15.08840964 67674,6917.877,95.437,540.457,539.028,0.0
52137.0,STARLINK-3733,PAYLOAD,2023-05-29 14:09:52,15.08841769,0.0001033,53.2173,306.0735,103.9535,256.1572,3.7814e-05,3.14e-06,0.0,0 STARLINK-3733,1 52137U 22029BB  23149.59018878  .00000314  00000-0  37814-4 0  9993,2 52137  53.2173 306.0735 0001033 103.9535 256.1572 15.08841769 67693,6917.875,95.437,540.455,539.025,0.0
52137.0,STARLINK-3733,PAYLOAD,2023-05-29 17:20:38,15.08842408,9.27e-05,53.2165,305.484,85.3831,274.7267,7.9698e-05,9.81e-06,0.0,0 STARLINK-3733,1 52137U 22029BB  23149.72266686  .00000981  00000-0  79698-4 0  9996,2 52137  53.2165 305.4840 0000927  85.3831 274.7267 15.08842408 67718,6917.873,95.437,540.379,539.097,0.0
52137.0,STARLINK-3733,PAYLOAD,2023-05-30 09:14:30,15.08839607,8.73e-05,53.2164,302.5097,82.5152,277.5939,1.3018e-05,-8.1e-07,0.0,0 STARLINK-3733,1 52137U 22029BB  23150.38507178 -.00000081  00000-0  13018-4 0  9990,2 52137  53.2164 302.5097 0000873  82.5152 277.5939 15.08839607 67819,6917.882,95.438,540.351,539.143,0.0
